GALAXY 25 (G-25)        
1 24812U 97026A   22323.98978427  .00000018  00000+0  00000+0 0  9994
2 24812   4.0764  82.0620 0006060 189.2073 210.1577  1.00271808 93282
INTELSAT 5 (IS-5)       
1 24916U 97046A   22323.58746924 -.00000042  00000+0  00000+0 0  9990
2 24916   7.5584  59.9569 0005998 179.9269 196.3306  1.00270915 92521
GALAXY 11 (G-11)        
1 26038U 99071A   22324.38847668 -.00000140  00000+0  00000+0 0  9992
2 26038   3.4112  85.6177 0002069 216.1562 164.3915  1.00271364 83998
INTELSAT 9 (IS-9)       
1 26451U 00043A   22324.18180860 -.00000267  00000+0  00000+0 0  9994
2 26451   7.5440  60.1292 0003797 183.5992 190.9317  1.00271028 81766
INTELSAT 1R (IS-1R)     
1 26608U 00072A   22324.31993663 -.00000116  00000+0  00000+0 0  9991
2 26608   4.7964  79.2714 0000774 251.0262   1.3033  1.00271560 80572
INTELSAT 10 (IS-10)     
1 26766U 01019A   22323.60307484  .00000055  00000+0  00000+0 0  9990
2 26766   5.9438  72.0113 0003922 173.4059 208.1124  1.00272508 32533
INTELSAT 901 (IS-901)   
1 26824U 01024A   22324.40155142 -.00000180  00000+0  00000+0 0  9992
2 26824   0.0523  91.9143 0000380 130.3208 314.2860  1.00270538 78509
INTELSAT 902 (IS-902)   
1 26900U 01039A   22324.11299314 -.00000260  00000+0  00000+0 0  9990
2 26900   2.7957  87.2461 0003378 167.1960 155.2710  1.00271104 77683
INTELSAT 904 (IS-904)   
1 27380U 02007A   22324.32937884 -.00000191  00000+0  00000+0 0  9996
2 27380   3.6246  84.2430 0002815 154.5602 269.6234  1.00272019 76000
DIRECTV 5 (TEMPO 1)     
1 27426U 02023A   22324.09813028 -.00000034  00000+0  00000+0 0  9998
2 27426   1.5197  91.2784 0003146 143.3702 109.6917  1.00273013 75216
INTELSAT 905 (IS-905)   
1 27438U 02027A   22324.10049406 -.00000162  00000+0  00000+0 0  9990
2 27438   3.4462  84.9656 0002573 152.6589 193.1924  1.00271745 74889
GALAXY 3C (G-3C)        
1 27445U 02030A   22324.38035275 -.00000130  00000+0  00000+0 0  9996
2 27445   0.3734  91.1428 0001186 220.3998 149.9449  1.00270995 74863
INTELSAT 906 (IS-906)   
1 27513U 02041A   22324.14632685  .00000037  00000+0  00000+0 0  9991
2 27513   2.4651  88.6613 0003945 162.4523 284.8551  1.00271706 73887
GALAXY 12 (G-12)        
1 27715U 03013B   22323.60270372  .00000080  00000+0  00000+0 0  9994
2 27715   3.6555  83.9056 0001639 156.0889 266.5977  1.00270883 39008
GALAXY 23 (G-23)        
1 27854U 03034A   22324.45463487  .00000035  00000+0  00000+0 0  9996
2 27854   0.0128 292.8717 0003203 310.7406 218.5392  1.00272744 75463
GALAXY 13 (HORIZONS-1)  
1 27954U 03044A   22323.60636983  .00000068  00000+0  00000+0 0  9993
2 27954   0.0502 101.9834 0000189  37.7016  10.2222  1.00271179 70064
INTELSAT 10-02          
1 28358U 04022A   22324.19157108  .00000011  00000+0  00000+0 0  9999
2 28358   0.0423  89.4559 0001077 203.8785 193.8589  1.00271207 67540
XM-3 (RHYTHM)           
1 28626U 05008A   22324.31830889 -.00000184  00000+0  00000+0 0  9992
2 28626   0.0214 130.2991 0001578  58.2260 260.2792  1.00269160 64982
DIRECTV 8               
1 28659U 05019A   22323.59420955  .00000021  00000+0  00000+0 0  9997
2 28659   0.0059 343.2342 0002727 260.8699 269.3860  1.00272400 64094
GALAXY 28 (G-28)        
1 28702U 05022A   22324.17827267 -.00000164  00000+0  00000+0 0  9991
2 28702   0.0413  83.5127 0002320 179.4074 131.4598  1.00271959 63749
GALAXY 14 (G-14)        
1 28790U 05030A   22324.36021737  .00000178  00000+0  00000+0 0  9990
2 28790   1.6532  90.4636 0001839 147.7963 343.7070  1.00273672 63215
GALAXY 15 (G-15)        
1 28884U 05041A   22323.60636913  .00000064  00000+0  00000+0 0  9994
2 28884   0.2062  91.8992 0003986 166.9432 251.1232  1.00304037 62526
SPACEWAY 2              
1 28903U 05046B   22324.02064065  .00000125  00000+0  00000+0 0  9999
2 28903   2.2585  86.3771 0000762 249.5761 311.6427  1.00272451 62405
GALAXY 16 (G-16)        
1 29236U 06023A   22323.81329369 -.00000106  00000+0  00000+0 0  9992
2 29236   0.0031  49.4789 0002607 181.4579  21.6910  1.00271728 59886
DIRECTV 9S              
1 29494U 06043A   22324.09987358 -.00000092  00000+0  00000+0 0  9993
2 29494   0.0015  33.3118 0002864 204.2579 116.3098  1.00271327 59021
XM-4 (BLUES)            
1 29520U 06049A   22324.39004565 -.00000184  00000+0  00000+0 0  9994
2 29520   0.0235 299.6655 0001742  24.4848 150.5515  1.00270321 58917
GALAXY 17 (G-17)        
1 31307U 07016B   22324.17827267 -.00000153  00000+0  00000+0 0  9999
2 31307   0.0385  77.3075 0002695 169.9319 145.1579  1.00272559 56993
DIRECTV 10              
1 31862U 07032A   22323.52569789 -.00000083  00000+0  00000+0 0  9995
2 31862   0.0139 160.4821 0000264  29.9140 314.6248  1.00271475 56314
SPACEWAY 3              
1 32018U 07036A   22323.52726687 -.00000131  00000+0  00000+0 0  9999
2 32018   0.6223  90.9008 0000313 339.2490  83.2778  1.00271719 56039
INTELSAT 11 (IS-11)     
1 32253U 07044B   22324.11299314 -.00000247  00000+0  00000+0 0  9995
2 32253   0.1799  93.5915 0002681 169.5363 153.6858  1.00271647 55447
HORIZONS-2              
1 32388U 07063B   22323.81843642 -.00000232  00000+0  00000+0 0  9994
2 32388   0.0389  92.8497 0002103 145.6014  41.2379  1.00271916 54723
DIRECTV 11              
1 32729U 08013A   22323.46922788 -.00000106  00000+0  00000+0 0  9999
2 32729   0.0027 109.3236 0000284  26.8243 352.1087  1.00271772 32500
GALAXY 18 (G-18)        
1 32951U 08024A   22324.45419906  .00000047  00000+0  00000+0 0  9994
2 32951   0.0101 352.3541 0002914 248.5948 219.0418  1.00270185 53000
INTELSAT 25 (IS-25)     
1 33153U 08034A   22324.24285522 -.00000202  00000+0  00000+0 0  9996
2 33153   0.0171 297.9816 0002931 303.4894 233.7116  1.00270350 52552
GALAXY 19 (G-19)        
1 33376U 08045A   22323.81372953 -.00000118  00000+0  00000+0 0  9998
2 33376   0.0191  72.1766 0002839 166.8427  15.7266  1.00268857 51819
FM-5                    
1 35493U 09034A   22323.45727340 -.00000181  00000+0  00000+0 0  9993
2 35493   0.0135 296.2289 0000224 212.8983 347.8497  1.00272648 48884
INTELSAT 14 (IS-14)     
1 36097U 09064A   22323.82418931 -.00000253  00000+0  00000+0 0  9991
2 36097   0.0139 320.9002 0002603 287.2945  62.3769  1.00271706 47518
INTELSAT 15 (IS-15)     
1 36106U 09067A   22323.78938593 -.00000165  00000+0  00000+0 0  9993
2 36106   0.0159 318.0877 0002305 287.7614 182.3014  1.00271908 28133
DIRECTV 12              
1 36131U 09075A   22324.09961208 -.00000082  00000+0  00000+0 0  9992
2 36131   0.0324 157.2501 0000140  95.8623  99.1675  1.00269946 47302
INTELSAT 16 (IS-16)     
1 36397U 10006A   22323.81791344 -.00000224  00000+0  00000+0 0  9991
2 36397   0.0146 310.1564 0002094 288.4230  38.5222  1.00271783 46565
XM-5                    
1 37185U 10053A   22324.02534756 -.00000002  00000+0  00000+0 0  9999
2 37185   0.0161 307.6345 0000484 189.5252 175.7995  1.00268868 44358
INTELSAT 17 (IS-17)     
1 37238U 10065B   22324.19980056  .00000020  00000+0  00000+0 0  9996
2 37238   0.0136 267.5841 0002431 331.8419 317.7120  1.00271740 43838
INTELSAT NEW DAWN       
1 37392U 11016A   22324.37202317  .00000177  00000+0  00000+0 0  9994
2 37392   0.0258 108.4080 0000650 106.6677  11.0608  1.00263326 42438
INTELSAT 18 (IS-18)     
1 37834U 11056A   22323.79725535  .00000073  00000+0  00000+0 0  9991
2 37834   0.0286   4.1641 0002028 224.9629 296.7187  1.00270199 40727
INTELSAT 22 (IS-22)     
1 38098U 12011A   22324.06265414 -.00000038  00000+0  00000+0 0  9994
2 38098   0.0125 324.1393 0002789 270.6023 278.9925  1.00272474 38964
INTELSAT 19 (IS-19)     
1 38356U 12030A   22323.79446608 -.00000036  00000+0  00000+0 0  9995
2 38356   0.0176 319.7917 0003009 284.5387 266.5031  1.00271481 37352
INTELSAT 20 (IS-20)     
1 38740U 12043A   22323.87965906 -.00000004  00000+0  00000+0 0  9997
2 38740   0.0216 144.1596 0003379  50.8666 249.0444  1.00272411 37742
INTELSAT 21 (IS-21)     
1 38749U 12045A   22324.11646493 -.00000264  00000+0  00000+0 0  9991
2 38749   0.0220  41.9828 0002287 195.0303 166.0690  1.00272429 37554
INTELSAT 23 (IS-23)     
1 38867U 12057A   22323.82253317 -.00000264  00000+0  00000+0 0  9991
2 38867   0.0146 294.1400 0001147  72.5415 295.3103  1.00273972 36858
FM-6                    
1 39360U 13058A   22324.09690997  .00000004  00000+0  00000+0 0  9992
2 39360   0.0254 291.9091 0000525 234.3996 171.5367  1.00271608 33262
INTELSAT 30 (IS-30)     
1 40271U 14062A   22321.11021663 -.00000136  00000+0  00000+0 0  9996
2 40271   0.0173 287.7297 0002047 174.3332 258.7312  1.00270288 29462
DIRECTV 14              
1 40333U 14078B   22324.45899313 -.00000104  00000+0  00000+0 0  9992
2 40333   0.0275  96.8301 0000031  67.1398 321.5147  1.00272517 29160
DIRECTV 15              
1 40663U 15026A   22324.09952491 -.00000082  00000+0  00000+0 0  9994
2 40663   0.0113 329.9271 0000118 100.1397 282.0302  1.00272725 27451
SKY MEXICO-1            
1 40664U 15026B   22324.11021795 -.00000214  00000+0  00000+0 0  9999
2 40664   0.0181  15.5104 0002029 224.2399 140.2983  1.00272150 27444
INTELSAT 34 (IS-34)     
1 40874U 15039A   22324.32423611 -.00000264  00000+0  00000+0 0  9997
2 40874   0.0183 298.6319 0000465 214.9598 326.9910  1.00272247 26539
INTELSAT 31 (IS-31)     
1 41581U 16035A   22322.03432245 -.00000134  00000+0  00000+0 0  9995
2 41581   0.0161 258.1668 0001881 310.9589 125.2553  1.00270512 23587
INTELSAT 36 (IS-36)     
1 41747U 16053A   22323.87965906 -.00000004  00000+0  00000+0 0  9993
2 41747   0.0128 323.6707 0001482  47.6660  72.7441  1.00271815 22855
INTELSAT 33E (IS-33E)   
1 41748U 16053B   22324.41889726  .00000071  00000+0  00000+0 0  9993
2 41748   0.0136 316.5728 0001647 280.0181  33.6374  1.00271342 23131
INTELSAT 32E (IS-32E)   
1 41945U 17007B   22324.40466084 -.00000247  00000+0  00000+0 0  9995
2 41945   0.0145 315.5631 0000419 168.4384  37.8899  1.00269895 21161
INTELSAT 35E (IS-35E)   
1 42818U 17041A   22323.82628128 -.00000217  00000+0  00000+0 0  9994
2 42818   0.0166 296.1070 0001616 301.1199  84.6160  1.00272194 19721
INTELSAT 37E (IS-37E)   
1 42950U 17059A   22324.43104972 -.00000118  00000+0  00000+0 0  9994
2 42950   0.0141 329.5850 0002483 265.6103 321.4454  1.00272471 18961
AZERSPACE 2 (IS-38)     
1 43632U 18074A   22324.48775757  .00000158  00000+0  00000+0 0  9993
2 43632   0.0215 295.8433 0001219 307.2354  37.1086  1.00269317 15357
HORIZONS-3E             
1 43633U 18074B   22323.59280944 -.00000011  00000+0  00000+0 0  9993
2 43633   0.0170  73.0037 0001080 222.6034 145.4038  1.00269884 15242
AT&T T-16               
1 44333U 19034A   22324.45864448 -.00000093  00000+0  00000+0 0  9991
2 44333   0.0187  64.8937 0000097 107.5061 311.3028  1.00268299 12545
INTELSAT 39 (IS-39)     
1 44476U 19049B   22324.20412284  .00000055  00000+0  00000+0 0  9992
2 44476   0.0131 284.0732 0000737 204.1963  66.3905  1.00269772 12040
GALAXY 30 (G-30)        
1 46114U 20056C   22324.15882556  .00000058  00000+0  00000+0 0  9993
2 46114   0.0196 297.7038 0002046 289.1927 124.4591  1.00271088  8315
GALAXY 33               
1 54026U 22128A   22324.45219425  .00000100  00000+0  00000+0 0  9996
2 54026   0.0249 100.4431 0002319 144.6595 204.1822  1.00273844   666
GALAXY 34               
1 54027U 22128B   22324.24651832  .00000151  00000+0  00000+0 0  9992
2 54027   0.0074 350.7856 0000918 301.4397  67.8019  1.00272857   698
2022-153A               
1 54243U 22153A   22321.75666288 -.00000131  00000+0  00000+0 0  9993
2 54243   1.3310 126.4407 2070818 181.2691  25.4972  0.71236792    57
2022-153B               
1 54244U 22153B   22323.54767939 -.00000117  00000+0  00000+0 0  9992
2 54244   1.2332 126.3182 2126087 181.8177 115.4176  0.70417329    68
